CS1                     
1 49261U 21088B   26068.75173904  .00015722  00000+0  51176-3 0  9998
2 49261  97.3882 132.1684 0014129  78.0335 282.2490 15.31848439245182
STARLINK-31558          
1 59196U 24045U   26068.41723172  .00000772  00000+0  37584-4 0  9990
2 59196  43.0028  93.7396 0001233 257.8157 102.2556 15.27570414113136
