[{"OBJECT_NAME":"CS1","OBJECT_ID":"2021-088B","EPOCH":"2026-03-09T18:02:30.253920","MEAN_MOTION":15.31848439,"ECCENTRICITY":0.00141292,"INCLINATION":97.3882,"RA_OF_ASC_NODE":132.1684,"ARG_OF_PERICENTER":78.0335,"MEAN_ANOMALY":282.249,"EPHEMERIS_TYPE":0,"CLASSIFICATION_TYPE":"U","NORAD_CAT_ID":49261,"ELEMENT_SET_NO":999,"REV_AT_EPOCH":24518,"BSTAR":0.00051175576,"MEAN_MOTION_DOT":0.00015722,"MEAN_MOTION_DDOT":0},{"OBJECT_NAME":"STARLINK-31558","OBJECT_ID":"2024-045U","EPOCH":"2026-03-09T10:00:48.820608","MEAN_MOTION":15.27570414,"ECCENTRICITY":0.00012334,"INCLINATION":43.0028,"RA_OF_ASC_NODE":93.7396,"ARG_OF_PERICENTER":257.8157,"MEAN_ANOMALY":102.2556,"EPHEMERIS_TYPE":0,"CLASSIFICATION_TYPE":"U","NORAD_CAT_ID":59196,"ELEMENT_SET_NO":999,"REV_AT_EPOCH":11313,"BSTAR":3.7583813e-5,"MEAN_MOTION_DOT":7.72e-6,"MEAN_MOTION_DDOT":0}]
